{
  "type": "FeatureCollection",
  "features": [
    {
      "type": "Feature",
      "properties": {
        "norad_id": 35025,
        "name": "COSMOS 2251 DEB",
        "group": "cosmos-2251-debris",
        "lat": -53.40157695722026,
        "lon": 19.5880377243139,
        "alt_km": 599.5890101882414,
        "timestamp": "2025-12-23T05:02:12.425644+00:00",
        "meta_object_name": "COSMOS 2251 DEB",
        "meta_object_id": "1993-036AGN",
        "meta_epoch": "2025-12-21T12:31:58.633824",
        "meta_mean_motion": 14.72748333,
        "meta_eccentricity": 0.00855678,
        "meta_inclination": 73.938,
        "meta_ra_of_asc_node": 45.7208,
        "meta_arg_of_pericenter": 316.6726,
        "meta_mean_anomaly": 42.7738,
        "meta_ephemeris_type": 0,
        "meta_classification_type": "U",
        "meta_norad_cat_id": 35025,
        "meta_element_set_no": 999,
        "meta_rev_at_epoch": 88772,
        "meta_bstar": 0.00031209765,
        "meta_mean_motion_dot": 2.075e-05,
        "meta_mean_motion_ddot": 0,
        "tle_line1": "1 35025U 93036AGN 25355.52220641  .00002075  00000+0  31210-3 0  9991",
        "tle_line2": "2 35025  73.9380  45.7208 0085567 316.6726  42.7738 14.72748333887720"
      },
      "geometry": {
        "type": "Point",
        "coordinates": [
          19.5880377243139,
          -53.40157695722026
        ]
      }
    },
    {
      "type": "Feature",
      "properties": {
        "norad_id": 35026,
        "name": "COSMOS 2251 DEB",
        "group": "cosmos-2251-debris",
        "lat": 4.8740929147296574,
        "lon": 117.6425982220311,
        "alt_km": 749.1089371524868,
        "timestamp": "2025-12-23T05:02:12.425654+00:00",
        "meta_object_name": "COSMOS 2251 DEB",
        "meta_object_id": "1993-036AGP",
        "meta_epoch": "2025-12-18T03:45:00.139104",
        "meta_mean_motion": 14.53626797,
        "meta_eccentricity": 0.0082422,
        "meta_inclination": 74.047,
        "meta_ra_of_asc_node": 308.5764,
        "meta_arg_of_pericenter": 60.5026,
        "meta_mean_anomaly": 318.4835,
        "meta_ephemeris_type": 0,
        "meta_classification_type": "U",
        "meta_norad_cat_id": 35026,
        "meta_element_set_no": 999,
        "meta_rev_at_epoch": 88222,
        "meta_bstar": 6.097601e-05,
        "meta_mean_motion_dot": 2.37e-06,
        "meta_mean_motion_ddot": 0,
        "tle_line1": "1 35026U 93036AGP 25352.15625161  .00000237  00000+0  60976-4 0  9994",
        "tle_line2": "2 35026  74.0470 308.5764 0082422  60.5026 318.4835 14.53626797882224"
      },
      "geometry": {
        "type": "Point",
        "coordinates": [
          117.6425982220311,
          4.8740929147296574
        ]
      }
    },
    {
      "type": "Feature",
      "properties": {
        "norad_id": 35028,
        "name": "COSMOS 2251 DEB",
        "group": "cosmos-2251-debris",
        "lat": 36.13389977121949,
        "lon": -96.82464658021661,
        "alt_km": 644.9283631521075,
        "timestamp": "2025-12-23T05:02:12.425664+00:00",
        "meta_object_name": "COSMOS 2251 DEB",
        "meta_object_id": "1993-036AGR",
        "meta_epoch": "2025-12-21T04:06:01.501344",
        "meta_mean_motion": 14.56577596,
        "meta_eccentricity": 0.00828284,
        "meta_inclination": 74.0382,
        "meta_ra_of_asc_node": 254.9813,
        "meta_arg_of_pericenter": 26.387,
        "meta_mean_anomaly": 123.709,
        "meta_ephemeris_type": 0,
        "meta_classification_type": "U",
        "meta_norad_cat_id": 35028,
        "meta_element_set_no": 999,
        "meta_rev_at_epoch": 88408,
        "meta_bstar": 7.219211e-05,
        "meta_mean_motion_dot": 3.06e-06,
        "meta_mean_motion_ddot": 0,
        "tle_line1": "1 35028U 93036AGR 25355.17085071  .00000306  00000+0  72192-4 0  9991",
        "tle_line2": "2 35028  74.0382 254.9813 0082828  26.3870 123.7090 14.56577596884085"
      },
      "geometry": {
        "type": "Point",
        "coordinates": [
          -96.82464658021661,
          36.13389977121949
        ]
      }
    },
    {
      "type": "Feature",
      "properties": {
        "norad_id": 35031,
        "name": "COSMOS 2251 DEB",
        "group": "cosmos-2251-debris",
        "lat": -18.533417668479768,
        "lon": -125.52897456433456,
        "alt_km": 755.3558722947209,
        "timestamp": "2025-12-23T05:02:12.425674+00:00",
        "meta_object_name": "COSMOS 2251 DEB",
        "meta_object_id": "1993-036AGU",
        "meta_epoch": "2025-12-17T23:55:41.225088",
        "meta_mean_motion": 14.38299529,
        "meta_eccentricity": 0.00190755,
        "meta_inclination": 74.0382,
        "meta_ra_of_asc_node": 249.5774,
        "meta_arg_of_pericenter": 342.0186,
        "meta_mean_anomaly": 18.0291,
        "meta_ephemeris_type": 0,
        "meta_classification_type": "U",
        "meta_norad_cat_id": 35031,
        "meta_element_set_no": 999,
        "meta_rev_at_epoch": 65359,
        "meta_bstar": 0.00013785455,
        "meta_mean_motion_dot": 3.94e-06,
        "meta_mean_motion_ddot": 0,
        "tle_line1": "1 35031U 93036AGU 25351.99700492  .00000394  00000+0  13785-3 0  9991",
        "tle_line2": "2 35031  74.0382 249.5774 0019075 342.0186  18.0291 14.38299529653593"
      },
      "geometry": {
        "type": "Point",
        "coordinates": [
          -125.52897456433456,
          -18.533417668479768
        ]
      }
    },
    {
      "type": "Feature",
      "properties": {
        "norad_id": 35032,
        "name": "COSMOS 2251 DEB",
        "group": "cosmos-2251-debris",
        "lat": -69.89692211573421,
        "lon": -140.5539782578174,
        "alt_km": 680.6932677868317,
        "timestamp": "2025-12-23T05:02:12.425684+00:00",
        "meta_object_name": "COSMOS 2251 DEB",
        "meta_object_id": "1993-036AGV",
        "meta_epoch": "2025-12-22T10:26:48.274080",
        "meta_mean_motion": 14.58795664,
        "meta_eccentricity": 0.00676936,
        "meta_inclination": 73.8521,
        "meta_ra_of_asc_node": 348.6021,
        "meta_arg_of_pericenter": 198.2211,
        "meta_mean_anomaly": 312.7288,
        "meta_ephemeris_type": 0,
        "meta_classification_type": "U",
        "meta_norad_cat_id": 35032,
        "meta_element_set_no": 999,
        "meta_rev_at_epoch": 87815,
        "meta_bstar": 0.00078651165,
        "meta_mean_motion_dot": 3.765e-05,
        "meta_mean_motion_ddot": 0,
        "tle_line1": "1 35032U 93036AGV 25356.43528095  .00003765  00000+0  78651-3 0  9991",
        "tle_line2": "2 35032  73.8521 348.6021 0067693 198.2211 312.7288 14.58795664878155"
      },
      "geometry": {
        "type": "Point",
        "coordinates": [
          -140.5539782578174,
          -69.89692211573421
        ]
      }
    },
    {
      "type": "Feature",
      "properties": {
        "norad_id": 35033,
        "name": "COSMOS 2251 DEB",
        "group": "cosmos-2251-debris",
        "lat": -13.096730344505096,
        "lon": 153.05530164979731,
        "alt_km": 725.5636481311185,
        "timestamp": "2025-12-23T05:02:12.425694+00:00",
        "meta_object_name": "COSMOS 2251 DEB",
        "meta_object_id": "1993-036AGW",
        "meta_epoch": "2025-12-19T05:07:27.625152",
        "meta_mean_motion": 14.50959586,
        "meta_eccentricity": 0.001448,
        "meta_inclination": 74.0251,
        "meta_ra_of_asc_node": 164.3945,
        "meta_arg_of_pericenter": 270.8601,
        "meta_mean_anomaly": 89.0901,
        "meta_ephemeris_type": 0,
        "meta_classification_type": "U",
        "meta_norad_cat_id": 35033,
        "meta_element_set_no": 999,
        "meta_rev_at_epoch": 66021,
        "meta_bstar": 0.00048139,
        "meta_mean_motion_dot": 1.877e-05,
        "meta_mean_motion_ddot": 0,
        "tle_line1": "1 35033U 93036AGW 25353.21351418  .00001877  00000+0  48139-3 0  9998",
        "tle_line2": "2 35033  74.0251 164.3945 0014480 270.8601  89.0901 14.50959586660212"
      },
      "geometry": {
        "type": "Point",
        "coordinates": [
          153.05530164979731,
          -13.096730344505096
        ]
      }
    },
    {
      "type": "Feature",
      "properties": {
        "norad_id": 35038,
        "name": "COSMOS 2251 DEB",
        "group": "cosmos-2251-debris",
        "lat": 58.448145874964226,
        "lon": 51.425498004348604,
        "alt_km": 757.2691416252819,
        "timestamp": "2025-12-23T05:02:12.425703+00:00",
        "meta_object_name": "COSMOS 2251 DEB",
        "meta_object_id": "1993-036AHB",
        "meta_epoch": "2025-12-16T02:43:57.942048",
        "meta_mean_motion": 14.25166694,
        "meta_eccentricity": 0.01140711,
        "meta_inclination": 74.1077,
        "meta_ra_of_asc_node": 36.5236,
        "meta_arg_of_pericenter": 19.3791,
        "meta_mean_anomaly": 9.3469,
        "meta_ephemeris_type": 0,
        "meta_classification_type": "U",
        "meta_norad_cat_id": 35038,
        "meta_element_set_no": 999,
        "meta_rev_at_epoch": 85617,
        "meta_bstar": 0.00096319549,
        "meta_mean_motion_dot": 2.397e-05,
        "meta_mean_motion_ddot": 0,
        "tle_line1": "1 35038U 93036AHB 25350.11386507  .00002397  00000+0  96320-3 0  9999",
        "tle_line2": "2 35038  74.1077  36.5236 0114071  19.3791   9.3469 14.25166694856178"
      },
      "geometry": {
        "type": "Point",
        "coordinates": [
          51.425498004348604,
          58.448145874964226
        ]
      }
    }
  ]
}